BEIJING 1               
1 28890U 05043A   25112.89975586  .00000782  00000+0  16145-3 0  9993
2 28890  98.2347 240.3386 0015325 152.8299 207.3707 14.63110199 39182
HUANJING 1A (HJ-1A)     
1 33320U 08041A   25112.95952200  .00003124  00000+0  39380-3 0  9992
2 33320  97.6406 111.3677 0021249  79.0484 281.3119 14.82505495896114
HUANJING 1B (HJ-1B)     
1 33321U 08041B   25113.11050218  .00002227  00000+0  28277-3 0  9996
2 33321  97.6298 115.7349 0038659 120.3235 240.1812 14.82104248896254
YAOGAN-4                
1 33446U 08061A   25112.89585369  .00002540  00000+0  32703-3 0  9997
2 33446  97.9025  45.7566 0014827   5.6970 354.4409 14.81896269883390
DEIMOS-1                
1 35681U 09041A   25113.03457701  .00001243  00000+0  19389-3 0  9998
2 35681  97.6973 284.8914 0002723 100.3991 259.7526 14.74515204844958
UK-DMC 2                
1 35683U 09041C   25113.05569637  .00001916  00000+0  29185-3 0  9996
2 35683  97.8236 255.1480 0001374 106.5895 253.5465 14.75019985844663
DMC3-FM1                
1 40715U 15032A   25112.91817692  .00001288  00000+0  15708-3 0  9994
2 40715  97.7057 348.2284 0005809  12.4815 347.6543 14.84986852527526
DMC3-FM2                
1 40716U 15032B   25113.07414595  .00001294  00000+0  15765-3 0  9998
2 40716  97.7114 349.6626 0007708  13.6980 346.4443 14.85019355527546
DMC3-FM3                
1 40717U 15032C   25113.04757182  .00001340  00000+0  16111-3 0  9996
2 40717  97.7166 351.0722 0006839 356.3839   3.7325 14.85522877527542
